     3.03           N: GNSS NAV DATA    M: Mixed            RINEX VERSION / TYPE
RTKCONV 2.4.3 demo5                     20181129 215326 UTC PGM / RUN BY / DATE 
log: D:\aceinna\st\333\st02333u46.dat                       COMMENT             
format: RTCM 3, station ID: 1                               COMMENT             
                                                            END OF HEADER       
E 3 2018 11 29 20 30  0 -.105220125988E-03 -.420641299570E-11  .000000000000E+00
      .590000000000E+02  .653125000000E+01  .329513725569E-08 -.283103968142E+00
      .294297933578E-06  .304988352582E-03  .124927610159E-04  .544062511253E+04
      .419400000000E+06  .130385160446E-07  .198535919025E+01  .689178705215E-07
      .952306438403E+00  .717500000000E+02  .556353695233E+00 -.555237413581E-08
      .384301721995E-09  .200000000000E+01  .202900000000E+04  .000000000000E+00
      .312000000000E+01  .000000000000E+00 -.186264514923E-08  .000000000000E+00
      .420413400000E+06  .000000000000E+00
E 5 2018 11 29 19 40  0  .151025713421E-03 -.657962573314E-11  .000000000000E+00
      .540000000000E+02  .144375000000E+02  .324942106572E-08 -.611357782397E+00
      .536441802979E-06  .151987769641E-03  .123735517263E-04  .544062562370E+04
      .416400000000E+06 -.353902578354E-07  .198535919903E+01  .782310962677E-07
      .952319142383E+00  .731250000000E+02  .130001089399E+01 -.552915888309E-08
      .356800576462E-09  .200000000000E+01  .202900000000E+04  .000000000000E+00
      .312000000000E+01  .000000000000E+00 -.139698386192E-08  .000000000000E+00
      .420413400000E+06  .000000000000E+00
E 9 2018 11 29 20 30  0  .660309096565E-02 -.112976294986E-10  .000000000000E+00
      .590000000000E+02  .625000000000E+01  .320799076855E-08  .174210957102E+01
      .258907675743E-06  .287152361125E-03  .114161521196E-04  .544062088585E+04
      .419400000000E+06 -.260770320892E-07  .197654641521E+01 -.223517417908E-07
      .958311563512E+00  .931875000000E+02  .102530614857E+00 -.549201447873E-08
      .246438836595E-09  .200000000000E+01  .202900000000E+04  .000000000000E+00
      .312000000000E+01  .000000000000E+00 -.302679836750E-08  .000000000000E+00
      .420413400000E+06  .000000000000E+00
E24 2018 11 29 20 20  0  .636399642099E-02 -.196109795070E-10  .000000000000E+00
      .580000000000E+02  .185625000000E+02  .276225791627E-08 -.630143496737E+00
      .715255737305E-06  .324607477523E-03  .751763582230E-05  .544061751175E+04
      .418800000000E+06 -.279396772385E-07 -.220260016972E+01  .614672899246E-07
      .987996371569E+00  .191843750000E+03  .310156699843E+00 -.544451250009E-08
     -.506806824824E-09  .200000000000E+01  .202900000000E+04  .000000000000E+00
      .312000000000E+01  .000000000000E+00  .428408384323E-07  .000000000000E+00
      .420413400000E+06  .000000000000E+00
G 1 2018 11 29 22  0  0 -.121538992971E-03 -.568434188608E-11  .000000000000E+00
      .450000000000E+02 -.504687500000E+02  .435410993758E-08  .211631433850E+01
     -.264681875706E-05  .818931788672E-02  .454485416412E-05  .515366157913E+04
      .424800000000E+06 -.189989805222E-06  .276151239310E+00 -.113621354103E-06
      .973704608442E+00  .298843750000E+03  .696113963072E+00 -.818891252965E-08
      .496449250533E-10  .000000000000E+00  .202900000000E+04  .100000000000E+01
      .200000000000E+01  .000000000000E+00  .558793544769E-08  .450000000000E+02
      .420413400000E+06  .400000000000E+01
G 3 2018 11 29 22  0  0  .165167730302E-03  .352429196937E-11  .000000000000E+00
      .820000000000E+02 -.720000000000E+02  .439804033889E-08  .100497319648E+01
     -.396557152271E-05  .187447364442E-02  .100806355476E-04  .515363428688E+04
      .424800000000E+06 -.931322574615E-08  .131871563435E+01  .242143869400E-07
      .961575831139E+00  .184343750000E+03  .706999006924E+00 -.798604693662E-08
      .000000000000E+00  .000000000000E+00  .202900000000E+04  .100000000000E+01
      .200000000000E+01  .000000000000E+00  .232830643654E-08  .820000000000E+02
      .420413400000E+06  .400000000000E+01
G 8 2018 11 29 22  0  0 -.123886857182E-03 -.125055521494E-11  .000000000000E+00
      .150000000000E+02  .478125000000E+02  .424553398639E-08 -.158175344277E+01
      .254623591900E-05  .386000494473E-02  .665336847305E-05  .515365996933E+04
      .424800000000E+06 -.670552253723E-07 -.789295718021E+00  .726431608200E-07
      .969995082680E+00  .259093750000E+03 -.414441471974E+00 -.805783564120E-08
      .193579491934E-09  .000000000000E+00  .202900000000E+04  .100000000000E+01
      .200000000000E+01  .000000000000E+00  .512227416039E-08  .150000000000E+02
      .420413400000E+06  .400000000000E+01
G10 2018 11 29 22  0  0  .158179551363E-03 -.488853402203E-11  .000000000000E+00
      .960000000000E+02 -.635625000000E+02  .443375611231E-08  .154202086862E+00
     -.331364572048E-05  .403581245337E-02  .902451574802E-05  .515366755104E+04
      .424800000000E+06  .279396772385E-07  .131537556416E+01  .596046447754E-07
      .961633446704E+00  .206875000000E+03 -.281613784488E+01 -.805069248651E-08
      .367872466222E-10  .000000000000E+00  .202900000000E+04  .100000000000E+01
      .200000000000E+01  .000000000000E+00  .186264514923E-08  .960000000000E+02
      .420413400000E+06  .400000000000E+01
G11 2018 11 29 22  0  0 -.694374088198E-03  .432009983342E-11  .000000000000E+00
      .760000000000E+02 -.159375000000E+01  .584845789746E-08  .145203153007E+01
     -.379979610443E-06  .167309392709E-01  .307522714138E-05  .515366986847E+04
      .424800000000E+06  .290572643280E-06 -.162876897025E+00 -.422820448875E-06
      .907820637139E+00  .290062500000E+03  .184437404012E+01 -.894501545294E-08
      .192508018732E-09  .000000000000E+00  .202900000000E+04  .100000000000E+01
      .200000000000E+01  .000000000000E+00 -.121071934700E-07  .760000000000E+02
      .420413400000E+06  .400000000000E+01
G14 2018 11 29 22  0  0 -.952528789639E-04  .454747350886E-12  .000000000000E+00
      .130000000000E+02  .384687500000E+02  .462804991971E-08 -.222869516845E+01
      .198744237423E-05  .998549372889E-02  .904686748981E-05  .515364891434E+04
      .424800000000E+06  .108033418655E-06  .244322793107E+01  .149011611938E-07
      .960682206167E+00  .202281250000E+03 -.194622640666E+01 -.787175646168E-08
      .339657005220E-09  .000000000000E+00  .202900000000E+04  .100000000000E+01
      .200000000000E+01  .000000000000E+00 -.977888703346E-08  .130000000000E+02
      .420413400000E+06  .400000000000E+01
G17 2018 11 29 22  0  0 -.250535085797E-04  .488853402203E-11  .000000000000E+00
      .400000000000E+02  .604062500000E+02  .395409327528E-08 -.198276683797E+01
      .315904617310E-05  .129270305624E-01  .662356615067E-05  .515365238190E+04
      .424800000000E+06  .316649675369E-06 -.724228830352E+00  .316649675369E-07
      .983670306297E+00  .264156250000E+03 -.175604567975E+01 -.779603902203E-08
      .200722646618E-09  .000000000000E+00  .202900000000E+04  .100000000000E+01
      .200000000000E+01  .000000000000E+00 -.111758708954E-07  .400000000000E+02
      .420413400000E+06  .400000000000E+01
G18 2018 11 29 22  0  0  .315718352795E-06  .397903932026E-11  .000000000000E+00
      .110000000000E+02 -.488125000000E+02  .476198407004E-08  .190306997953E+01
     -.278279185295E-05  .149614018155E-01  .406056642532E-05  .515361485291E+04
      .424800000000E+06  .100582838058E-06  .224927531420E+00 -.389292836189E-06
      .952179514167E+00  .295468750000E+03  .136390070021E+01 -.831677499849E-08
      .889322758148E-10  .000000000000E+00  .202900000000E+04  .100000000000E+01
      .280000000000E+01  .100000000000E+01 -.651925802231E-08  .110000000000E+02
      .420413400000E+06  .400000000000E+01
G22 2018 11 29 22  0  0 -.586511101574E-03 -.954969436862E-11  .000000000000E+00
      .104000000000E+03 -.731875000000E+02  .519843082122E-08 -.275038271570E+01
     -.394694507122E-05  .699166150298E-02  .889413058758E-05  .515364816856E+04
      .424800000000E+06  .912696123123E-07  .125222023204E+01  .745058059692E-07
      .925883846961E+00  .183656250000E+03 -.145395187484E+01 -.825891544555E-08
      .471448209139E-10  .000000000000E+00  .202900000000E+04  .100000000000E+01
      .200000000000E+01  .000000000000E+00 -.181607902050E-07  .104000000000E+03
      .420413400000E+06  .400000000000E+01
G23 2018 11 29 22  0  0 -.204891432077E-03  .102318153949E-11  .000000000000E+00
      .730000000000E+02  .326875000000E+02  .501020869530E-08  .290252607745E+01
      .159628689289E-05  .126207225258E-01  .963546335697E-05  .515368645668E+04
      .424800000000E+06  .223517417908E-07  .234850202806E+01 -.121071934700E-06
      .943278485667E+00  .186500000000E+03 -.231716343792E+01 -.798890419850E-08
      .365729519817E-09  .000000000000E+00  .202900000000E+04  .100000000000E+01
      .200000000000E+01  .000000000000E+00 -.200234353542E-07  .730000000000E+02
      .420413400000E+06  .400000000000E+01
G25 2018 11 29 22  0  0 -.684083439410E-03 -.557065504836E-11  .000000000000E+00
      .510000000000E+02  .128437500000E+02  .430589364347E-08  .531373403504E+00
      .767409801483E-06  .766869145446E-02  .850670039654E-05  .515355949402E+04
      .424800000000E+06 -.106170773506E-06 -.182027250865E+01  .949949026108E-07
      .972170801742E+00  .220750000000E+03  .850729575913E+00 -.807819363205E-08
     -.414302971667E-09  .000000000000E+00  .202900000000E+04  .100000000000E+01
      .200000000000E+01  .000000000000E+00  .558793544769E-08  .510000000000E+02
      .420413400000E+06  .400000000000E+01
